#dP2024  7 23 12  0  0.00000000      96 __u+U IGS20 EXT  IAC
## 2324 216000.00000000   900.00000000 60514 0.5000000000000
+   54   G02G03G04G05G06G07G08G09G10G11G12G13G14G15G16G17G18
+        G19G20G21G22G23G24G25G26G27G28G29G30G31G32R01R02R03
+        R04R05R07R08R09R11R12R13R14R15R16R17R18R19R20R21R22
+        R24R25R26  0  0  0  0  0  0  0  0  0  0  0  0  0  0
+          0  0  0  0  0  0  0  0  0  0  0  0  0  0  0  0  0
++         8  9  8  7  8  8  8  6  8  9  8 10  7  6  9  7  7
++         6  8  8  8  7  9  8  9  8  8  8  8  7  8  9  7 10
++         9  9  9  9  8  9  9  7  8  8  8  8  8  8 10  8  8
++         7  7  8  0  0  0  0  0  0  0  0  0  0  0  0  0  0
++         0  0  0  0  0  0  0  0  0  0  0  0  0  0  0  0  0
%c M  cc GPS ccc cccc cccc cccc cccc ccccc ccccc ccccc ccccc
%c cc cc ccc ccc cccc cccc cccc cccc ccccc ccccc ccccc ccccc
%f  0.0000000  0.000000000  0.00000000000  0.000000000000000
%f  0.0000000  0.000000000  0.00000000000  0.000000000000000
%i    0    0    0    0      0      0      0      0         0
%i    0    0    0    0      0      0      0      0         0
/* IAC                                ULTRA-RAPID PREDICTION
/* S/V CLOCKS ARE ALIGNED TO GNSS TIME                      
/* G:C1WC2W R:C1PC2P E:C1XC5X C:C2IC6I J:C1CC2S             
/* PCV:IGS20_2317 OL/AL:FES2004  NONE     YN ORB:CoN CLK:CoN
*  2024 07 24  6  0  0.00000000
PG02  10997.523326 -20260.453593 -12438.247123   -393.014290
PG03  -1808.520288 -16329.104653 -21060.833452    471.245510
PG04   1239.467843 -26202.101671  -3645.976960    410.065149
PG05 -14856.020296   8681.655273  20070.161326   -180.799747
PG06 -21137.837910   1557.653825 -16012.821000    142.753716
PG07  -7343.626167 -13942.328675  21879.522378    -63.997750
PG08   7484.095479 -21019.967438  13963.755272    287.339452
PG09  -7842.530684 -24226.358663   7364.059641    285.542607
PG10  24488.322124  10643.475517  -1255.490627    -74.264153
PG11 -23482.305845  11784.101303  -3641.364380   -710.208518
PG12  -2348.904470  15841.239453 -21474.873702   -524.760369
PG13 -13225.415423  13695.282479  18200.275258    666.524390
PG14 -23071.354283 -13239.118313   2125.749222    456.046278
PG15  -4647.060868  22152.913793  13239.748147    184.584419
PG16  18676.616802  -3943.109162  18316.629746   -228.089759
PG17 -12926.520122 -13587.121007 -18324.615118    671.091290
PG18   7287.602743  13055.633079  21958.046517   -639.676749
PG19 -14886.636012  -4490.361116 -21740.872017    514.803248
PG20 -22480.847802   3901.155278  13529.658421    372.436901
PG21  14933.974461 -19676.424493  -7781.932087    107.006070
PG22 -23916.020167  -9339.543900  -5751.917139    -43.226559
PG23  18848.893286  15795.592983  10324.970790    281.005186
PG24 -11556.145296  20977.640264 -11455.355394   -484.303034
PG25   9842.599995  18007.393351 -17337.733882    498.793713
PG26  25291.707990   3103.413549   7982.041748    114.227750
PG27  13034.859700 -10855.200211  20036.819166    -31.798948
PG28  20051.420411    237.276285 -17427.006269   -344.063944
PG29   3311.182389  25884.067150   4517.248284   -587.974464
PG30 -17003.460633  -5918.631563  19756.755864   -352.455198
PG31  23931.482435  -8679.812773  -8465.819614   -226.518800
PG32  14398.251752  11375.121195 -19061.543646   -610.443061
PR01   8862.499387  23119.876480   6102.208749     92.339719
PR02  14233.137302  18209.838224 -10824.964093    -23.833892
PR03  12642.745255   2433.837284 -21987.486711    104.323766
PR04   4018.948474 -14011.782613 -20902.359115    246.601235
PR05  -6528.057229 -23099.688498  -8587.766890    134.982381
PR07 -12378.070830  -1613.468013  22274.417847     87.331590
PR08  -3860.614029  14323.702400  20817.513075     -6.123599
PR09 -20827.441920  -7171.756998  12961.548293    199.428029
PR11 -16929.834527   7407.338989 -17578.144850     17.208568
PR12   3669.122650  11122.777126 -22630.029252     42.828316
PR13  18771.552199   8276.251408 -15165.682074    -49.724878
PR14  25207.176050   -482.251813   3813.810765     26.739653
PR15  15494.075200  -8010.169917  18633.527317     77.580849
PR16  -3515.012280 -10983.235825  22771.959368     27.657835
PR17  16155.720802  -9692.738045  17226.728646    107.371849
PR18  15482.809729 -20080.351084   2588.929039    153.519454
PR19   8768.602267 -20721.666084 -12031.830360   -285.019665
PR20  -6962.189583  -7977.821054 -23200.238965   -116.631885
PR21 -16049.214622   9118.541626 -17590.743501   -120.106133
PR22 -15612.513051  20132.334129  -1311.478729     82.977287
PR24   8074.869750   7450.272582  23032.783282    -64.962604
PR25 -16748.037323   9154.295624 -16905.418773    -97.896804
PR26  -4659.217802  13126.497845  21381.600996      5.942119
*  2024 07 24  6 15  0.00000000
PG02  12168.758781 -20984.275785  -9969.965698   -393.007585
PG03    417.193671 -15404.245829 -21813.238297    471.259558
PG04   1531.534597 -25643.172748  -6441.705098    410.072098
PG05 -16929.891362   7795.093765  18768.283977   -180.800909
PG06 -19627.477123    334.716424 -17881.551751    142.732821
PG07  -5403.919451 -15319.829058  21469.633347    -63.991266
PG08   7974.763174 -19324.039552  16016.069376    287.353612
PG09  -7688.690459 -24952.271928   4619.051031    285.556353
PG10  24425.725282  10792.567268   1627.529722    -74.273254
PG11 -23135.177857  11261.889215  -6433.771369   -710.214289
PG12  -4516.727982  14761.842182 -21894.682661   -524.763103
PG13 -13296.465271  11482.415136  19628.034570    666.526502
PG14 -22595.285333 -13327.601570   4899.219716    456.054271
PG15  -5363.239239  20561.260658  15313.320977    184.588301
PG16  20414.522116  -2854.918784  16657.170455   -228.080195
PG17 -12887.666768 -15672.010646 -16633.711396    671.083888
PG18   5246.549503  14479.969836  21626.411046   -639.680114
PG19 -14883.744973  -6900.672286 -21133.971822    514.808059
PG20 -23802.964049   3353.688977  11189.633530    372.436561
PG21  15749.140308 -19970.790698  -4995.082232    107.004120
PG22 -24265.370860  -9845.551982  -2937.913131    -43.230499
PG23  17574.755274  15456.608859  12778.941266    281.013173
PG24 -12601.607474  21509.109490  -8973.760576   -484.304190
PG25   7932.920469  17374.664693 -18898.830446    498.794028
PG26  25931.913162   3634.518264   5348.856570    114.221381
PG27  13435.225869  -8474.119202  20926.795340    -31.799660
PG28  18509.914332   1642.908105 -18987.514679   -344.077944
PG29   3091.531585  26253.248890   1662.900840   -587.972697
PG30 -15227.430938  -7361.287211  20681.648558   -352.449221
PG31  23179.911378  -7882.412038 -10988.237955   -226.518536
PG32  14539.680500  13501.136980 -17540.404767   -610.441036
PR01   8519.228430  22232.873279   9133.996455     92.340855
PR02  14908.085603  19166.017174  -7881.963939    -23.833920
PR03  13937.800794   4746.611629 -20802.288032    104.324527
PR04   5182.568333 -11618.286219 -22080.116396    246.602854
PR05  -6105.080490 -21920.612138 -11496.071930    134.982959
PR07 -13675.030738  -3953.676486  21191.376739     87.332454
PR08  -5031.521591  11968.033196  22020.587321     -6.123636
PR09 -19083.211385  -7092.075879  15448.768109    199.430005
PR11 -18964.960699   7459.726575 -15339.120661     17.207513
PR12    851.057742  11024.389145 -22956.003982     42.828852
PR13  16764.690531   8148.211374 -17419.558458    -49.725247
PR14  25481.520939   -589.637751    630.656094     26.739819
PR15  17663.101997  -8025.199678  16580.619512     77.580642
PR16   -691.733506 -10894.267667  23070.472986     27.658342
PR17  14849.466876  -7859.163009  19217.505654    107.375009
PR18  15033.462586 -19757.433118   5777.616094    153.521302
PR19   9354.582577 -21907.439024  -9143.254862   -285.021167
PR20  -5362.277071 -10321.949694 -22692.701699   -116.632409
PR21 -14702.478526   7257.912995 -19530.379541   -120.108896
PR22 -15285.286159  19918.635091  -4498.414158     82.971316
PR24   6584.449433   9836.412125  22605.450333    -64.963754
PR25 -15415.587862   7386.091358 -18919.815510    -97.898220
PR26  -5888.387194  10723.685693  22397.107321      5.943987
EOF
